NOAA 15                 
1 25338U 98030A   24080.58136918  .00000320  00000+0  15077-3 0  9993
2 25338  98.5791 109.5224 0009696 218.3684 141.6807 14.26515202344553
DMSP 5D-3 F16 (USA 172) 
1 28054U 03048A   24080.56732337  .00000328  00000+0  19681-3 0  9994
2 28054  99.0233  86.2001 0006405 309.6675 160.2987 14.13971393 53771
NOAA 18                 
1 28654U 05018A   24080.49396285  .00000345  00000+0  20802-3 0  9995
2 28654  98.8787 158.1872 0013335 317.2555  42.7579 14.13147008970648
METEOSAT-9 (MSG-2)      
1 28912U 05049B   24080.09493769  .00000117  00000+0  00000+0 0  9998
2 28912   7.4830  61.5941 0000976 333.6239 222.8172  1.00276965 66836
EWS-G1 (GOES 13)        
1 29155U 06018A   24080.51368712  .00000067  00000+0  00000+0 0  9995
2 29155   2.3941  86.3039 0088120 251.8008 263.7913  0.99153474 35152
DMSP 5D-3 F17 (USA 191) 
1 29522U 06050A   24080.55153016  .00000346  00000+0  20342-3 0  9997
2 29522  98.7488  92.9441 0009157 227.8315 132.2081 14.14417806896663
FENGYUN 3A              
1 32958U 08026A   24080.47423876  .00000305  00000+0  16659-3 0  9995
2 32958  98.5948  30.2049 0008254 336.3362  23.7433 14.19035501819262
FENGYUN 2E              
1 33463U 08066A   24073.46831098 -.00000205  00000+0  00000+0 0  9990
2 33463   7.3331  60.9881 0001504 296.8199  68.4463  1.00262202 55820
NOAA 19                 
1 33591U 09005A   24080.57468255  .00000333  00000+0  20314-3 0  9992
2 33591  99.0586 135.3996 0014024 178.2130 181.9094 14.12949267778851
GOES 14                 
1 35491U 09033A   24080.51721578 -.00000079  00000+0  00000+0 0  9992
2 35491   0.1301 122.0229 0002373 276.3164 217.9044  1.00271270 53905
DMSP 5D-3 F18 (USA 210) 
1 35951U 09057A   24080.53527711  .00000525  00000+0  29907-3 0  9990
2 35951  98.8062  57.1189 0012246  61.6600 298.5807 14.14030514743852
EWS-G2 (GOES 15)        
1 36411U 10008A   24080.17410331  .00000026  00000+0  00000+0 0  9994
2 36411   0.0734  99.5142 0003212 190.6580  11.8658  1.00271959 51423
COMS 1                  
1 36744U 10032A   24080.36715937 -.00000356  00000+0  00000+0 0  9998
2 36744   2.7002  85.7424 0000985 283.0281  69.9153  1.00271160 42875
FENGYUN 3B              
1 37214U 10059A   24080.58496958  .00000181  00000+0  11841-3 0  9997
2 37214  99.0653 107.4032 0021848 345.6876 125.2459 14.14458276691680
SUOMI NPP               
1 37849U 11061A   24080.58485191  .00000199  00000+0  11525-3 0  9990
2 37849  98.7151  19.9278 0001338 110.2036 249.9284 14.19533294642302
FENGYUN 2F              
1 38049U 12002A   24080.03521733 -.00000366  00000+0  00000+0 0  9991
2 38049   5.3731  73.9954 0003190  29.3919 199.0219  1.00260126 44667
METEOSAT-10 (MSG-3)     
1 38552U 12035B   24080.11716014 -.00000017  00000+0  00000+0 0  9996
2 38552   2.7660  60.1863 0001885 288.8582 231.3087  1.00274515 42648
METOP-B                 
1 38771U 12049A   24080.48549407  .00000233  00000+0  12608-3 0  9994
2 38771  98.6383 139.6575 0000509  92.3719 267.7517 14.21487413596950
INSAT-3D                
1 39216U 13038B   24080.07340895 -.00000169  00000+0  00000+0 0  9991
2 39216   0.0265  95.4317 0002296 210.9793 340.1726  1.00272156 38867
FENGYUN 3C              
1 39260U 13052A   24080.56943719  .00000211  00000+0  12715-3 0  9991
2 39260  98.4298  84.8748 0010303 217.9586 142.0864 14.16162963542720
METEOR-M 2              
1 40069U 14037A   24080.58846997  .00000301  00000+0  15812-3 0  9997
2 40069  98.4352  78.7982 0004565 253.0591 107.0087 14.20911214503048
HIMAWARI-8              
1 40267U 14060A   24080.50188382 -.00000289  00000+0  00000+0 0  9997
2 40267   0.0257 203.1596 0001184 137.0622 159.6173  1.00271469 34555
FENGYUN 2G              
1 40367U 14090A   24080.05535509 -.00000310  00000+0  00000+0 0  9993
2 40367   3.5622  82.5359 0001443  41.7456 172.9868  1.00260942 33787
METEOSAT-11 (MSG-4)     
1 40732U 15034A   24080.29823618  .00000049  00000+0  00000+0 0  9993
2 40732   1.1736  66.4363 0001138 233.0466 355.3435  1.00270541 31801
ELEKTRO-L 2             
1 41105U 15074A   24078.88963184 -.00000128  00000+0  00000+0 0  9996
2 41105   4.6117  80.5314 0002665 214.3320 187.8420  1.00271917 30288
INSAT-3DR               
1 41752U 16054A   24080.07896628 -.00000090  00000+0  00000+0 0  9993
2 41752   0.0649  89.0964 0013103 192.0857 359.2995  1.00272463 27608
HIMAWARI-9              
1 41836U 16064A   24080.50188382 -.00000288  00000+0  00000+0 0  9995
2 41836   0.0186 138.2936 0000979 218.5154 143.1293  1.00273154 27007
GOES 16                 
1 41866U 16071A   24080.47549326 -.00000261  00000+0  00000+0 0  9992
2 41866   0.0567 279.5004 0000801  92.5164 262.4251  1.00271979 26891
FENGYUN 4A              
1 41882U 16077A   24080.07340895 -.00000214  00000+0  00000+0 0  9990
2 41882   0.2324  80.3813 0007535 348.0449 222.7308  1.00279266 26714
CYGFM05                 
1 41884U 16078A   24080.49591999  .00010762  00000+0  42258-3 0  9995
2 41884  34.9542 141.6940 0012431 112.3825 247.8207 15.24854169402520
CYGFM04                 
1 41885U 16078B   24080.53578386  .00010761  00000+0  41223-3 0  9996
2 41885  34.9463 126.3313 0010192 139.3736 220.7741 15.25698595402612
CYGFM02                 
1 41886U 16078C   24080.51207927  .00011382  00000+0  43177-3 0  9995
2 41886  34.9557 128.9260 0012621 129.4640 230.7193 15.25987608402695
CYGFM01                 
1 41887U 16078D   24080.52708885  .00010471  00000+0  41470-3 0  9998
2 41887  34.9494 145.1138 0012260 110.3251 249.8782 15.24575549402463
CYGFM08                 
1 41888U 16078E   24080.53541468  .00011222  00000+0  43414-3 0  9997
2 41888  34.9479 134.0810 0012528 128.5337 231.6502 15.25338823402635
CYGFM07                 
1 41890U 16078G   24080.46603133  .00010896  00000+0  41618-3 0  9990
2 41890  34.9490 126.2432 0009738 137.2594 222.8879 15.25796265402610
CYGFM03                 
1 41891U 16078H   24080.49637823  .00011192  00000+0  42820-3 0  9993
2 41891  34.9510 127.1513 0010544 126.7549 233.4135 15.25731444402604
FENGYUN 3D              
1 43010U 17072A   24080.55276538  .00000223  00000+0  12793-3 0  9991
2 43010  98.9010  34.7371 0000825 184.7455 175.3712 14.19299924328842
NOAA 20                 
1 43013U 17073A   24080.54933789  .00000172  00000+0  10236-3 0  9995
2 43013  98.7414  19.9330 0001659  74.3531 285.7828 14.19559510328323
GOES 17                 
1 43226U 18022A   24080.16218815 -.00000104  00000+0  00000+0 0  9990
2 43226   0.0436   1.9009 0001371 319.0583 170.9046  1.00272701 22216
FENGYUN 2H              
1 43491U 18050A   24080.07827218 -.00000136  00000+0  00000+0 0  9993
2 43491   0.9121  87.8903 0001066 330.7913 226.4094  1.00266997 21224
METOP-C                 
1 43689U 18087A   24080.59240467  .00000225  00000+0  12291-3 0  9991
2 43689  98.6902 140.9778 0001976   2.1982 357.9204 14.21499240278538
GEO-KOMPSAT-2A          
1 43823U 18100A   24079.84771693 -.00000358  00000+0  00000+0 0  9992
2 43823   0.0472  24.6923 0001385  22.1387 204.4523  1.00272013 19412
METEOR-M2 2             
1 44387U 19038A   24080.53961489  .00000108  00000+0  66679-4 0  9992
2 44387  98.8177  49.4594 0000968 159.4773 200.6444 14.23861360244770
ARKTIKA-M 1             
1 47719U 21016A   24080.02526617  .00000068  00000+0  00000+0 0  9993
2 47719  63.1363 161.9131 6915347 268.8982  18.0800  2.00604242 22351
FENGYUN 3E              
1 49008U 21062A   24080.54928288  .00000068  00000+0  53006-4 0  9993
2 49008  98.7332  83.0176 0000597 323.2901  36.8234 14.19735919140416
GOES 18                 
1 51850U 22021A   24079.00850472  .00000083  00000+0  00000+0 0  9993
2 51850   0.0350  18.4115 0000806 278.7172 105.9462  1.00271457  7547
NOAA 21 (JPSS-2)        
1 54234U 22150A   24080.49575488  .00000217  00000+0  12372-3 0  9999
2 54234  98.7447  19.4613 0001555  69.4686 290.6657 14.19531409 70399
METEOSAT-12 (MTG-I1)    
1 54743U 22170C   24080.11716014 -.00000020  00000+0  00000+0 0  9991
2 54743   0.4024  16.6383 0000910 341.0157 222.3506  1.00268428  4761
TIANMU-1 03             
1 55973U 23039A   24080.50845585  .00012512  00000+0  51610-3 0  9996
2 55973  97.4564 231.4893 0013253  63.7743 296.4854 15.24116076 55348
TIANMU-1 04             
1 55974U 23039B   24080.55657425  .00012724  00000+0  52566-3 0  9992
2 55974  97.4485 231.1930 0010337  63.8642 296.3658 15.24091050 55344
TIANMU-1 05             
1 55975U 23039C   24080.54219329  .00012175  00000+0  50367-3 0  9996
2 55975  97.4535 231.4441 0006447  61.2204 298.9680 15.24085392 55338
TIANMU-1 06             
1 55976U 23039D   24080.59223039  .00011965  00000+0  49516-3 0  9995
2 55976  97.4547 231.5933 0005953  63.3894 296.7952 15.24081474 55344
METEOR-M2 3             
1 57166U 23091A   24080.57526354  .00000050  00000+0  41083-4 0  9995
2 57166  98.7243 136.0001 0004542  40.7076 319.4441 14.23876784 38018
TIANMU-1 07             
1 57399U 23101A   24080.54485506  .00006957  00000+0  36695-3 0  9999
2 57399  97.3745 140.2276 0006109 128.8721 231.3058 15.15846576 36994
TIANMU-1 08             
1 57400U 23101B   24080.51390158  .00007832  00000+0  41269-3 0  9993
2 57400  97.3734 140.0838 0008454 133.9624 226.2307 15.15826987 36984
TIANMU-1 09             
1 57401U 23101C   24080.49569821  .00007564  00000+0  39872-3 0  9995
2 57401  97.3691 139.9634 0008826 130.5787 229.6215 15.15823863 36989
TIANMU-1 10             
1 57402U 23101D   24080.52715751  .00007493  00000+0  39540-3 0  9998
2 57402  97.3768 140.1777 0010998 131.6399 228.5778 15.15768215 36982
FENGYUN 3F              
1 57490U 23111A   24080.50715590  .00000156  00000+0  94601-4 0  9994
2 57490  98.7773 150.4311 0001093  53.4602 306.6674 14.19779324 32684
TIANMU-1 11             
1 58645U 23205A   24080.59468545  .00007760  00000+0  42375-3 0  9993
2 58645  97.4138 107.9848 0010672 348.1114  11.9864 15.14550157 13105
TIANMU-1 12             
1 58646U 23205B   24080.54046808  .00006893  00000+0  37921-3 0  9990
2 58646  97.4125 107.8886 0009414 345.9768  14.1201 15.14334709 13085
TIANMU-1 13             
1 58647U 23205C   24080.43424620  .00008681  00000+0  48317-3 0  9999
2 58647  97.4151 107.7600 0009456 337.9127  22.1696 15.13842165 13068
TIANMU-1 14             
1 58648U 23205D   24080.55013952  .00007128  00000+0  39755-3 0  9996
2 58648  97.4078 107.8246 0009787 338.0619  22.0193 15.13827097 13089
TIANMU-1 19             
1 58660U 23208A   24080.55417338  .00008323  00000+0  46313-3 0  9995
2 58660  97.4006 195.2974 0010325 317.9586  42.0852 15.13855653 12758
TIANMU-1 20             
1 58661U 23208B   24080.59531533  .00008989  00000+0  49470-3 0  9999
2 58661  97.3936 195.3101 0009652 327.6520  32.4119 15.14232269 12763
TIANMU-1 21             
1 58662U 23208C   24080.57019609  .00008850  00000+0  47703-3 0  9997
2 58662  97.3975 195.3899 0009273 328.7429  31.3251 15.14981779 12762
TIANMU-1 22             
1 58663U 23208D   24080.57116585  .00008181  00000+0  45518-3 0  9998
2 58663  97.3994 195.4067 0005715 336.1213  23.9753 15.13896948 12769
TIANMU-1 15             
1 58700U 24004A   24080.54627796  .00006814  00000+0  37968-3 0  9994
2 58700  97.4612 263.3673 0010411   4.7912 355.3417 15.13876573 11355
TIANMU-1 16             
1 58701U 24004B   24080.53013355  .00007655  00000+0  42616-3 0  9994
2 58701  97.4538 263.3149 0010477  11.6466 348.5006 15.13865963 11353
TIANMU-1 17             
1 58702U 24004C   24080.58018573  .00007827  00000+0  43601-3 0  9993
2 58702  97.4585 263.4448 0007824   8.3957 351.7404 15.13858629 11358
TIANMU-1 18             
1 58703U 24004D   24080.56389214  .00007056  00000+0  39397-3 0  9996
2 58703  97.4602 263.4811 0006952   1.3552 358.7697 15.13816375 11351
INSAT-3DS               
1 58990U 24033A   24080.07340895 -.00000178  00000+0  00000+0 0  9998
2 58990   0.1061  86.7163 0010421 357.1706 203.6099  1.00270666    73
METEOR-M2 4             
1 59051U 24039A   24080.56090327  .00000286  00000+0  14842-3 0  9991
2 59051  98.5878  44.6829 0007675  30.1451 330.0167 14.22202563  2895
